{"type":"FeatureCollection","features":[{"type":"Feature","properties":{"id":4,"name":"Alphabet City"},"geometry":{"type":"MultiPolygon","coordinates":[[[[-73.971627,40.726628],[-73.97348,40.718861],[-73.975095,40.718881],[-73.977224,40.71931],[-73.978752,40.719934],[-73.983824,40.721473],[-73.978027,40.729433],[-73.97205,40.726881],[-73.971627,40.726628]]]]}},{"type":"Feature","properties":{"id":12,"name":"Battery Park"},"geometry":{"type":"MultiPolygon","coordinates":[[[[-74.015658,40.704833],[-74.014259,40.704489],[-74.01443,40.703151],[-74.013899,40.702271],[-74.013769,40.701143],[-74.014159,40.701096],[-74.013952,40.700991],[-74.014221,40.700111],[-74.014152,40.700578],[-74.014289,40.700644],[-74.014671,40.70021],[-74.014324,40.700661],[-74.014643,40.700817],[-74.015068,40.700318],[-74.015098,40.700334],[-74.014674,40.700835],[-74.015021,40.700993],[-74.015142,40.700843],[-74.016139,40.701646],[-74.017252,40.702836],[-74.017648,40.703495],[-74.01757,40.704184],[-74.017131,40.704283],[-74.016686,40.704799],[-74.015658,40.704833]]]]}},{"type":"Feature","properties":{"id":13,"name":"Battery Park City"},"geometry":{"type":"MultiPolygon","coordinates":[[[[-74.012441,40.719058],[-74.014269,40.711468],[-74.016687,40.704744],[-74.017131,40.704283],[-74.017795,40.704235],[-74.017751,40.704055],[-74.017818,40.703938],[-74.017955,40.703976],[-74.017844,40.704242],[-74.018448,40.704162],[-74.018668,40.704435],[-74.017481,40.704667],[-74.018113,40.704554],[-74.018887,40.704729],[-74.019343,40.706094],[-74.019123,40.706976],[-74.018631,40.70714],[-74.018849,40.70697],[-74.018535,40.706918],[-74.01819,40.707822],[-74.018855,40.708048],[-74.01777,40.712835],[-74.0178,40.712345],[-74.016624,40.712157],[-74.016618,40.712756],[-74.01632,40.713408],[-74.017544,40.713611],[-74.017725,40.71307],[-74.01671,40.718624],[-74.013213,40.718316],[-74.013031,40.719131],[-74.012441,40.719058]]]]}},{"type":"Feature","properties":{"id":24,"name":"Bloomingdale"},"geometry":{"type":"MultiPolygon","coordinates":[[[[-73.958173,40.800583],[-73.960045,40.798041],[-73.972872,40.803356],[-73.971108,40.80579],[-73.966701,40.804168],[-73.958173,40.800583]]]]}},{"type":"Feature","properties":{"id":41,"name":"Central Harlem"},"geometry":{"type":"MultiPolygon","coordinates":[[[[-73.952101,40.811443],[-73.941771,40.807089],[-73.942754,40.805744],[-73.944302,40.806391],[-73.94524,40.805136],[-73.946131,40.803877],[-73.944598,40.803228],[-73.94922,40.79691],[-73.959647,40.801156],[-73.958249,40.803106],[-73.958182,40.805597],[-73.954967,40.810065],[-73.953576,40.809477],[-73.952101,40.811443]]]]}},{"type":"Feature","properties":{"id":42,"name":"Central Harlem North"},"geometry":{"type":"MultiPolygon","coordinates":[[[[-73.934361,40.836201],[-73.934915,40.835231],[-73.935167,40.832875],[-73.934424,40.827043],[-73.933972,40.81973],[-73.93383,40.81972],[-73.933831,40.819521],[-73.9344,40.819668],[-73.934075,40.817827],[-73.934454,40.817189],[-73.939018,40.810857],[-73.935808,40.809498],[-73.938544,40.80573],[-73.952101,40.811443],[-73.95035,40.813159],[-73.9492,40.814721],[-73.946078,40.821263],[-73.945155,40.820876],[-73.942924,40.823261],[-73.939249,40.828296],[-73.93864,40.829739],[-73.940171,40.830384],[-73.938683,40.832801],[-73.934963,40.83576],[-73.934799,40.83611],[-73.934361,40.836201]]]]}},{"type":"Feature","properties":{"id":43,"name":"Central Park"},"geometry":{"type":"MultiPolygon","coordinates":[[[[-73.94922,40.79691],[-73.973015,40.764279],[-73.981362,40.767837],[-73.981326,40.768188],[-73.981648,40.768436],[-73.958173,40.800583],[-73.94922,40.79691]]]]}},{"type":"Feature","properties":{"id":45,"name":"Chinatown"},"geometry":{"type":"MultiPolygon","coordinates":[[[[-73.997504,40.714069],[-73.992562,40.714388],[-73.991777,40.709819],[-73.992047,40.709776],[-73.991908,40.709533],[-73.997283,40.708732],[-73.998528,40.708332],[-73.999195,40.707947],[-74.003661,40.711487],[-74.00511,40.712056],[-74.005892,40.712007],[-74.004858,40.712453],[-74.002723,40.71439],[-73.999956,40.718017],[-73.998589,40.7171],[-73.996059,40.716232],[-73.997504,40.714069]]]]}},{"type":"Feature","properties":{"id":48,"name":"Clinton East"},"geometry":{"type":"MultiPolygon","coordinates":[[[[-73.982365,40.767392],[-73.991633,40.754707],[-73.997307,40.757111],[-73.988063,40.769791],[-73.982365,40.767392]]]]}},{"type":"Feature","properties":{"id":50,"name":"Clinton West"},"geometry":{"type":"MultiPolygon","coordinates":[[[[-73.996677,40.77351],[-73.994163,40.772487],[-73.993831,40.772932],[-73.993503,40.772752],[-73.993874,40.772238],[-73.988063,40.769791],[-73.995475,40.759627],[-74.001278,40.762076],[-74.001533,40.762645],[-74.003757,40.763582],[-74.003612,40.763777],[-74.001386,40.76285],[-74.000973,40.76342],[-74.00315,40.764333],[-74.002948,40.764617],[-74.003223,40.764638],[-74.003113,40.764746],[-73.999927,40.763407],[-73.999623,40.763559],[-73.999151,40.764205],[-74.002274,40.765525],[-74.002025,40.765893],[-73.998885,40.764569],[-73.998576,40.764999],[-73.998689,40.765209],[-73.998282,40.765568],[-74.001573,40.766977],[-74.001315,40.767251],[-73.998067,40.765872],[-73.997378,40.766823],[-74.00065,40.768245],[-74.000386,40.768504],[-73.997156,40.767129],[-73.996457,40.768099],[-73.999736,40.769506],[-73.999473,40.769764],[-73.997072,40.768733],[-73.99715,40.768847],[-73.996571,40.769425],[-73.999027,40.770463],[-73.998762,40.770825],[-73.996313,40.769799],[-73.99588,40.770401],[-73.996017,40.770455],[-73.995901,40.770613],[-73.995767,40.770555],[-73.995425,40.771032],[-73.996002,40.771307],[-73.9959,40.77145],[-73.995306,40.771196],[-73.994935,40.771468],[-73.994977,40.771659],[-73.997112,40.772553],[-73.996909,40.772833],[-73.994774,40.77193],[-73.994445,40.772377],[-73.996449,40.773057],[-73.996143,40.773248],[-73.996677,40.77351]]]]}},{"type":"Feature","properties":{"id":68,"name":"East Chelsea"},"geometry":{"type":"MultiPolygon","coordinates":[[[[-73.991633,40.754707],[-74.002524,40.739753],[-74.008204,40.742148],[-73.997307,40.757111],[-73.991633,40.754707]]]]}},{"type":"Feature","properties":{"id":74,"name":"East Harlem North"},"geometry":{"type":"MultiPolygon","coordinates":[[[[-73.933806,40.816512],[-73.934015,40.814484],[-73.933857,40.814481],[-73.93393,40.813348],[-73.934341,40.809928],[-73.934121,40.808656],[-73.933561,40.807601],[-73.931159,40.804968],[-73.930306,40.803788],[-73.929208,40.801148],[-73.929035,40.801081],[-73.928902,40.799855],[-73.929036,40.796763],[-73.929279,40.795853],[-73.930069,40.794701],[-73.933485,40.792774],[-73.935053,40.791687],[-73.935428,40.791997],[-73.935553,40.791842],[-73.937736,40.792816],[-73.938649,40.791558],[-73.943273,40.793488],[-73.941876,40.795406],[-73.948311,40.798129],[-73.944598,40.803228],[-73.946131,40.803877],[-73.944302,40.806391],[-73.942754,40.805744],[-73.941771,40.807089],[-73.938544,40.80573],[-73.935808,40.809498],[-73.939018,40.810857],[-73.934075,40.817827],[-73.9344,40.819668],[-73.933831,40.819521],[-73.933806,40.816512]]],[[[-73.926886,40.800841],[-73.92651,40.800657],[-73.926869,40.800784],[-73.927046,40.800652],[-73.926886,40.800841]]],[[[-73.927169,40.800406],[-73.926696,40.800147],[-73.927248,40.800393],[-73.927115,40.800564],[-73.927169,40.800406]]],[[[-73.926721,40.800414],[-73.926538,40.800334],[-73.926743,40.800403],[-73.926721,40.800414]]],[[[-73.927185,40.79735],[-73.927671,40.797217],[-73.927707,40.797299],[-73.927383,40.797377],[-73.927185,40.79735]]]]}},{"type":"Feature","properties":{"id":75,"name":"East Harlem South"},"geometry":{"type":"MultiPolygon","coordinates":[[[[-73.943273,40.793488],[-73.938649,40.791558],[-73.937736,40.792816],[-73.935553,40.791842],[-73.935428,40.791997],[-73.935053,40.791687],[-73.935831,40.791095],[-73.937081,40.789366],[-73.936141,40.788949],[-73.936219,40.7888],[-73.93715,40.789168],[-73.938116,40.787185],[-73.939826,40.785257],[-73.94247,40.783896],[-73.943161,40.783412],[-73.943544,40.782881],[-73.94376,40.782829],[-73.955777,40.787914],[-73.948311,40.798129],[-73.941876,40.795406],[-73.943273,40.793488]]]]}},{"type":"Feature","properties":{"id":79,"name":"East Village"},"geometry":{"type":"MultiPolygon","coordinates":[[[[-73.98378,40.721536],[-73.992603,40.724136],[-73.991364,40.72756],[-73.990506,40.730565],[-73.989869,40.733527],[-73.989903,40.734435],[-73.978027,40.729433],[-73.98378,40.721536]]]]}},{"type":"Feature","properties":{"id":87,"name":"Financial District North"},"geometry":{"type":"MultiPolygon","coordinates":[[[[-74.005057,40.708789],[-74.00257,40.705524],[-74.002685,40.705449],[-74.00197,40.704731],[-74.002172,40.704607],[-74.002431,40.704678],[-74.002387,40.704796],[-74.003323,40.705629],[-74.003632,40.70543],[-74.002878,40.704831],[-74.002972,40.704766],[-74.003644,40.705422],[-74.004383,40.705113],[-74.004267,40.705012],[-74.00459,40.704788],[-74.003496,40.703797],[-74.00372,40.703654],[-74.004806,40.704642],[-74.005188,40.704421],[-74.004926,40.704212],[-74.005212,40.704406],[-74.00535,40.70431],[-74.004157,40.703232],[-74.004273,40.703016],[-74.005638,40.704106],[-74.006596,40.703686],[-74.005304,40.70256],[-74.005502,40.702431],[-74.005535,40.702646],[-74.005675,40.702584],[-74.006785,40.703568],[-74.007605,40.702993],[-74.007797,40.703064],[-74.009746,40.704775],[-74.009984,40.705148],[-74.009866,40.705796],[-74.012508,40.706767],[-74.009063,40.710887],[-74.005057,40.708789]]]]}},{"type":"Feature","properties":{"id":88,"name":"Financial District South"},"geometry":{"type":"MultiPolygon","coordinates":[[[[-74.009746,40.704775],[-74.007605,40.702993],[-74.009309,40.701955],[-74.0087,40.70114],[-74.007755,40.701548],[-74.007591,40.701328],[-74.008536,40.70092],[-74.008349,40.700669],[-74.00862,40.700552],[-74.009601,40.701865],[-74.011167,40.701477],[-74.011096,40.701275],[-74.01129,40.70125],[-74.010825,40.700209],[-74.01115,40.700898],[-74.011358,40.700852],[-74.011334,40.700568],[-74.011503,40.700815],[-74.011729,40.70077],[-74.011631,40.700458],[-74.011854,40.700739],[-74.012087,40.700681],[-74.011857,40.700107],[-74.011962,40.700038],[-74.012392,40.700621],[-74.012594,40.700571],[-74.012614,40.700108],[-74.012909,40.700524],[-74.013107,40.700507],[-74.013044,40.699775],[-74.013273,40.700497],[-74.013486,40.700478],[-74.013533,40.700108],[-74.013675,40.700126],[-74.01353,40.700311],[-74.013558,40.70094],[-74.014159,40.701096],[-74.013769,40.701143],[-74.013899,40.702271],[-74.01443,40.703151],[-74.014289,40.704549],[-74.01327,40.704553],[-74.013254,40.705871],[-74.012508,40.706767],[-74.009866,40.705796],[-74.009984,40.705148],[-74.009746,40.704775]]]]}},{"type":"Feature","properties":{"id":90,"name":"Flatiron"},"geometry":{"type":"MultiPolygon","coordinates":[[[[-73.991419,40.744803],[-73.99684,40.737361],[-74.002524,40.739753],[-73.997099,40.747205],[-73.991419,40.744803]]]]}},{"type":"Feature","properties":{"id":100,"name":"Garment District"},"geometry":{"type":"MultiPolygon","coordinates":[[[[-73.984118,40.754842],[-73.987769,40.749787],[-73.993464,40.75219],[-73.989791,40.757233],[-73.984118,40.754842]]]]}},{"type":"Feature","properties":{"id":103,"name":"Governor's Island/Ellis Island/Liberty Island"},"geometry":{"type":"MultiPolygon","coordinates":[[[[-74.043886,40.690185],[-74.043506,40.689687],[-74.042704,40.690155],[-74.042554,40.689963],[-74.043468,40.689637],[-74.043641,40.688767],[-74.044385,40.688516],[-74.046275,40.689327],[-74.046803,40.689953],[-74.047477,40.689611],[-74.04773,40.689915],[-74.047586,40.689983],[-74.047431,40.689804],[-74.046892,40.690059],[-74.0472,40.690425],[-74.04717,40.690991],[-74.046147,40.691123],[-74.043886,40.690185]]]]}},{"type":"Feature","properties":{"id":104,"name":"Governor's Island/Ellis Island/Liberty Island"},"geometry":{"type":"MultiPolygon","coordinates":[[[[-74.03995,40.700891],[-74.037711,40.699344],[-74.038098,40.69904],[-74.03823,40.698369],[-74.039,40.69837],[-74.03934,40.698116],[-74.041243,40.699537],[-74.041748,40.699148],[-74.039912,40.697702],[-74.041661,40.696453],[-74.043674,40.69802],[-74.042704,40.698801],[-74.042965,40.698999],[-74.041099,40.700493],[-74.040801,40.700269],[-74.040313,40.700626],[-74.040536,40.700782],[-74.040288,40.700644],[-74.03995,40.700891]]]]}},{"type":"Feature","properties":{"id":105,"name":"Governor's Island/Ellis Island/Liberty Island"},"geometry":{"type":"MultiPolygon","coordinates":[[[[-74.016748,40.693343],[-74.015404,40.693066],[-74.015389,40.693298],[-74.015175,40.693257],[-74.01526,40.693037],[-74.015124,40.693258],[-74.014931,40.693156],[-74.015156,40.693016],[-74.014221,40.692823],[-74.013436,40.692121],[-74.012573,40.692304],[-74.012337,40.69256],[-74.011812,40.692479],[-74.011757,40.692264],[-74.011903,40.692091],[-74.012201,40.692045],[-74.012461,40.692213],[-74.013333,40.69202],[-74.012609,40.691364],[-74.012034,40.691503],[-74.012598,40.691334],[-74.012528,40.691146],[-74.011826,40.691065],[-74.012195,40.691029],[-74.01221,40.690792],[-74.011972,40.690771],[-74.011981,40.690606],[-74.012231,40.690461],[-74.012307,40.68928],[-74.013169,40.688155],[-74.014881,40.687255],[-74.016047,40.687338],[-74.01705,40.686876],[-74.016647,40.686416],[-74.015144,40.686437],[-74.016674,40.686305],[-74.01753,40.685363],[-74.017623,40.68541],[-74.016781,40.686349],[-74.017121,40.686843],[-74.020544,40.685272],[-74.020207,40.684834],[-74.019398,40.685087],[-74.020953,40.684384],[-74.020278,40.684809],[-74.020613,40.68524],[-74.022594,40.68436],[-74.022133,40.683768],[-74.023056,40.682917],[-74.023195,40.683],[-74.022368,40.68378],[-74.022759,40.684284],[-74.023542,40.684003],[-74.024648,40.683979],[-74.025672,40.684236],[-74.026334,40.684802],[-74.026628,40.685527],[-74.026426,40.686175],[-74.020205,40.692034],[-74.019715,40.693133],[-74.016748,40.693343]]]]}},{"type":"Feature","properties":{"id":107,"name":"Gramercy"},"geometry":{"type":"MultiPolygon","coordinates":[[[[-73.978909,40.736164],[-73.982556,40.73135],[-73.989903,40.734435],[-73.989917,40.735349],[-73.984075,40.743325],[-73.98086,40.74197],[-73.982665,40.739497],[-73.978052,40.737554],[-73.978909,40.736164]]]]}},{"type":"Feature","properties":{"id":113,"name":"Greenwich Village North"},"geometry":{"type":"MultiPolygon","coordinates":[[[[-73.990027,40.732756],[-73.991548,40.727089],[-73.996572,40.729552],[-73.995562,40.730715],[-74.000067,40.732929],[-73.99684,40.737361],[-73.989903,40.734435],[-73.989869,40.733527],[-73.990027,40.732756]]]]}},{"type":"Feature","properties":{"id":114,"name":"Greenwich Village South"},"geometry":{"type":"MultiPolygon","coordinates":[[[[-73.99258,40.724202],[-73.996772,40.725432],[-74.002817,40.728363],[-74.001412,40.731065],[-74.000067,40.732929],[-73.995562,40.730715],[-73.996572,40.729552],[-73.991548,40.727089],[-73.99258,40.724202]]]]}},{"type":"Feature","properties":{"id":116,"name":"Hamilton Heights"},"geometry":{"type":"MultiPolygon","coordinates":[[[[-73.939249,40.828296],[-73.942924,40.823261],[-73.945155,40.820876],[-73.948083,40.822108],[-73.94854,40.821488],[-73.949922,40.822072],[-73.950829,40.820828],[-73.95634,40.823092],[-73.959545,40.823645],[-73.957259,40.827117],[-73.956949,40.827001],[-73.956318,40.827944],[-73.955039,40.827413],[-73.954697,40.827918],[-73.954542,40.827861],[-73.951316,40.832451],[-73.950936,40.833294],[-73.950155,40.834397],[-73.949416,40.834359],[-73.93864,40.829739],[-73.939249,40.828296]]]]}},{"type":"Feature","properties":{"id":120,"name":"Highbridge Park"},"geometry":{"type":"MultiPolygon","coordinates":[[[[-73.922954,40.858851],[-73.922828,40.856851],[-73.922045,40.856854],[-73.922378,40.856558],[-73.922279,40.855655],[-73.924441,40.85284],[-73.929719,40.845232],[-73.930895,40.842538],[-73.934361,40.836201],[-73.934799,40.83611],[-73.934963,40.83576],[-73.938385,40.833114],[-73.939871,40.830992],[-73.940079,40.830464],[-73.940346,40.830458],[-73.940246,40.831842],[-73.939478,40.833013],[-73.938042,40.834289],[-73.936383,40.83785],[-73.935331,40.838875],[-73.935055,40.839333],[-73.935006,40.839852],[-73.935628,40.841279],[-73.935567,40.841713],[-73.930621,40.848481],[-73.929707,40.848123],[-73.928867,40.849392],[-73.927477,40.850694],[-73.92708,40.851432],[-73.927033,40.852201],[-73.927696,40.852488],[-73.924692,40.856642],[-73.92467,40.856983],[-73.924869,40.857656],[-73.925189,40.858028],[-73.926175,40.858154],[-73.926636,40.857932],[-73.926911,40.857509],[-73.9271,40.858276],[-73.926766,40.858915],[-73.925287,40.860126],[-73.925022,40.860695],[-73.924998,40.861464],[-73.924742,40.861594],[-73.922954,40.858851]]]]}},{"type":"Feature","properties":{"id":125,"name":"Hudson Sq"},"geometry":{"type":"MultiPolygon","coordinates":[[[[-74.002693,40.728314],[-74.002149,40.728035],[-74.00373,40.72625],[-74.005364,40.722184],[-74.00531,40.721824],[-74.010812,40.72579],[-74.011025,40.725794],[-74.011354,40.724277],[-74.011964,40.72433],[-74.011653,40.725872],[-74.015204,40.726362],[-74.015124,40.726794],[-74.011542,40.726447],[-74.011383,40.728229],[-74.010768,40.728174],[-74.010673,40.729113],[-74.002693,40.728314]]]]}},{"type":"Feature","properties":{"id":127,"name":"Inwood"},"geometry":{"type":"MultiPolygon","coordinates":[[[[-73.911543,40.873254],[-73.910649,40.872296],[-73.910438,40.871377],[-73.910737,40.870944],[-73.91093,40.869436],[-73.911478,40.869452],[-73.911033,40.869155],[-73.91113,40.86892],[-73.911328,40.868802],[-73.911848,40.867673],[-73.912732,40.866605],[-73.912548,40.866515],[-73.913919,40.864746],[-73.914924,40.86458],[-73.91454,40.864412],[-73.914411,40.864174],[-73.915086,40.864448],[-73.915899,40.864308],[-73.915847,40.86411],[-73.915196,40.863945],[-73.915176,40.86368],[-73.915477,40.863346],[-73.915387,40.863084],[-73.917295,40.861679],[-73.918434,40.860222],[-73.918393,40.86008],[-73.918778,40.859547],[-73.919502,40.858791],[-73.920479,40.859104],[-73.921271,40.860188],[-73.92159,40.860073],[-73.921866,40.859181],[-73.921256,40.858847],[-73.920939,40.858121],[-73.920609,40.858019],[-73.920484,40.858233],[-73.920351,40.858195],[-73.920494,40.858165],[-73.920565,40.857883],[-73.920773,40.857941],[-73.920631,40.857796],[-73.920706,40.857701],[-73.920718,40.857772],[-73.921014,40.857839],[-73.920755,40.857557],[-73.920982,40.857612],[-73.9209,40.857494],[-73.921049,40.857382],[-73.921121,40.857537],[-73.92152,40.857349],[-73.921592,40.857065],[-73.922045,40.856854],[-73.922828,40.856851],[-73.922958,40.858914],[-73.927269,40.865535],[-73.928722,40.866743],[-73.926233,40.868506],[-73.922344,40.869459],[-73.922144,40.86915],[-73.92136,40.869552],[-73.919255,40.871008],[-73.919699,40.872065],[-73.918459,40.873022],[-73.91401,40.871161],[-73.911543,40.873254]]],[[[-73.921519,40.856601],[-73.922296,40.855664],[-73.922345,40.855682],[-73.921698,40.856672],[-73.921519,40.856601]]]]}},{"type":"Feature","properties":{"id":128,"name":"Inwood Hill Park"},"geometry":{"type":"MultiPolygon","coordinates":[[[[-73.92363,40.878964],[-73.923637,40.878815],[-73.923679,40.878826],[-73.92363,40.878964]]],[[[-73.926406,40.877621],[-73.926291,40.877496],[-73.9264,40.877221],[-73.926152,40.877086],[-73.925494,40.877128],[-73.924828,40.877445],[-73.923814,40.87723],[-73.923208,40.87728],[-73.922584,40.876923],[-73.922399,40.876743],[-73.922423,40.875695],[-73.922655,40.875137],[-73.922535,40.87424],[-73.922065,40.873608],[-73.921169,40.873069],[-73.920561,40.872994],[-73.920132,40.873192],[-73.919783,40.873604],[-73.920627,40.874235],[-73.920803,40.874194],[-73.9207,40.874392],[-73.921182,40.875138],[-73.920903,40.875466],[-73.918858,40.874643],[-73.919211,40.874156],[-73.919281,40.873637],[-73.918939,40.873303],[-73.918554,40.873181],[-73.918603,40.873493],[-73.917929,40.873979],[-73.917577,40.874549],[-73.917871,40.873905],[-73.916343,40.874524],[-73.915224,40.874487],[-73.912609,40.873767],[-73.911543,40.873254],[-73.91401,40.871161],[-73.918459,40.873022],[-73.919699,40.872065],[-73.919255,40.871008],[-73.92136,40.869552],[-73.922144,40.86915],[-73.922344,40.869459],[-73.926233,40.868506],[-73.928722,40.866743],[-73.931414,40.868962],[-73.931565,40.869582],[-73.932199,40.869845],[-73.932206,40.870096],[-73.931914,40.871129],[-73.931377,40.872109],[-73.92918,40.875556],[-73.928146,40.876523],[-73.927531,40.876711],[-73.926406,40.877621]]]]}},{"type":"Feature","properties":{"id":137,"name":"Kips Bay"},"geometry":{"type":"MultiPolygon","coordinates":[[[[-73.972168,40.740693],[-73.972657,40.739223],[-73.97249,40.735803],[-73.972869,40.735771],[-73.974414,40.736414],[-73.97446,40.736294],[-73.974027,40.736126],[-73.974466,40.736278],[-73.974504,40.736065],[-73.974141,40.735956],[-73.974505,40.736042],[-73.974508,40.735797],[-73.974487,40.735877],[-73.974245,40.735781],[-73.974469,40.735799],[-73.974465,40.735668],[-73.974145,40.735673],[-73.973057,40.735177],[-73.972807,40.735524],[-73.97293,40.735608],[-73.972763,40.735505],[-73.972945,40.735065],[-73.973299,40.735242],[-73.973296,40.735041],[-73.973545,40.734944],[-73.974749,40.735425],[-73.975223,40.735398],[-73.978498,40.736791],[-73.978052,40.737554],[-73.982665,40.739497],[-73.978124,40.745727],[-73.971679,40.743054],[-73.971889,40.742725],[-73.971741,40.742664],[-73.97196,40.742338],[-73.97229,40.740721],[-73.972168,40.740693]]]]}},{"type":"Feature","properties":{"id":140,"name":"Lenox Hill East"},"geometry":{"type":"MultiPolygon","coordinates":[[[[-73.954418,40.762184],[-73.958778,40.758271],[-73.961966,40.759619],[-73.952685,40.772339],[-73.94749,40.770115],[-73.954418,40.762184]]]]}},{"type":"Feature","properties":{"id":141,"name":"Lenox Hill West"},"geometry":{"type":"MultiPolygon","coordinates":[[[[-73.952685,40.772339],[-73.961966,40.759619],[-73.966583,40.761551],[-73.957294,40.774284],[-73.952685,40.772339]]]]}},{"type":"Feature","properties":{"id":142,"name":"Lincoln Square East"},"geometry":{"type":"MultiPolygon","coordinates":[[[[-73.981479,40.767725],[-73.982152,40.767682],[-73.982365,40.767392],[-73.988063,40.769791],[-73.980674,40.779925],[-73.974997,40.777533],[-73.981648,40.768436],[-73.981295,40.768119],[-73.981479,40.767725]]]]}},{"type":"Feature","properties":{"id":143,"name":"Lincoln Square West"},"geometry":{"type":"MultiPolygon","coordinates":[[[[-73.985072,40.78178],[-73.980674,40.779925],[-73.988063,40.769791],[-73.993874,40.772238],[-73.993503,40.772752],[-73.994301,40.77297],[-73.994294,40.773156],[-73.995023,40.773481],[-73.99505,40.773297],[-73.996241,40.77379],[-73.996063,40.773887],[-73.996095,40.774086],[-73.993936,40.77318],[-73.992623,40.774974],[-73.992267,40.775116],[-73.992059,40.775498],[-73.992386,40.775557],[-73.990927,40.777567],[-73.990396,40.777585],[-73.988869,40.779693],[-73.991551,40.779575],[-73.99142,40.779755],[-73.988886,40.779879],[-73.988919,40.780226],[-73.988127,40.781402],[-73.985679,40.780313],[-73.985072,40.78178]]]]}},{"type":"Feature","properties":{"id":144,"name":"Little Italy/NoLiTa"},"geometry":{"type":"MultiPolygon","coordinates":[[[[-73.994808,40.718457],[-73.996059,40.716232],[-73.998589,40.7171],[-74.001884,40.719398],[-73.996772,40.725432],[-73.992603,40.724136],[-73.994808,40.718457]]]]}},{"type":"Feature","properties":{"id":148,"name":"Lower East Side"},"geometry":{"type":"MultiPolygon","coordinates":[[[[-73.983824,40.721473],[-73.985073,40.719083],[-73.986751,40.719593],[-73.988366,40.716446],[-73.989155,40.716709],[-73.99022,40.714405],[-73.990755,40.714554],[-73.997504,40.714069],[-73.994808,40.718457],[-73.992603,40.724136],[-73.983824,40.721473]]]]}},{"type":"Feature","properties":{"id":151,"name":"Manhattan Valley"},"geometry":{"type":"MultiPolygon","coordinates":[[[[-73.960045,40.798041],[-73.964176,40.792362],[-73.96526,40.792801],[-73.969871,40.794735],[-73.969415,40.795361],[-73.9764,40.798273],[-73.972872,40.803356],[-73.960045,40.798041]]]]}},{"type":"Feature","properties":{"id":152,"name":"Manhattanville"},"geometry":{"type":"MultiPolygon","coordinates":[[[[-73.95634,40.823092],[-73.950829,40.820828],[-73.949922,40.822072],[-73.94854,40.821488],[-73.948083,40.822108],[-73.946078,40.821263],[-73.9492,40.814721],[-73.95035,40.813159],[-73.952101,40.811443],[-73.954081,40.81228],[-73.955707,40.814144],[-73.95627,40.813375],[-73.959493,40.817007],[-73.962031,40.818086],[-73.959999,40.820383],[-73.959815,40.820298],[-73.959131,40.821169],[-73.959426,40.821252],[-73.959147,40.821571],[-73.959033,40.821514],[-73.959235,40.821278],[-73.95909,40.821206],[-73.958819,40.821519],[-73.958942,40.821569],[-73.958745,40.821806],[-73.959,40.82241],[-73.95923,40.822287],[-73.95991,40.822571],[-73.959603,40.822995],[-73.958926,40.822712],[-73.95905,40.822541],[-73.958527,40.821844],[-73.957939,40.822774],[-73.958228,40.822888],[-73.958143,40.823021],[-73.959509,40.823596],[-73.95634,40.823092]]]]}},{"type":"Feature","properties":{"id":153,"name":"Marble Hill"},"geometry":{"type":"MultiPolygon","coordinates":[[[[-73.906665,40.875716],[-73.907743,40.872846],[-73.908464,40.872621],[-73.908932,40.872157],[-73.909717,40.873205],[-73.910921,40.874146],[-73.915786,40.875717],[-73.914874,40.876642],[-73.912058,40.878119],[-73.911489,40.879019],[-73.910332,40.879038],[-73.909498,40.878777],[-73.907037,40.876895],[-73.906819,40.87662],[-73.906665,40.875716]]]]}},{"type":"Feature","properties":{"id":158,"name":"Meatpacking/West Village West"},"geometry":{"type":"MultiPolygon","coordinates":[[[[-74.009166,40.742417],[-74.005158,40.740858],[-74.00709,40.728772],[-74.010673,40.729113],[-74.010768,40.728174],[-74.014391,40.728463],[-74.014087,40.730663],[-74.011162,40.730451],[-74.010994,40.73232],[-74.010941,40.73302],[-74.014002,40.733068],[-74.014,40.733332],[-74.010904,40.733298],[-74.010725,40.73346],[-74.010865,40.733593],[-74.010833,40.734007],[-74.012018,40.734064],[-74.012001,40.734338],[-74.010814,40.734283],[-74.010477,40.738064],[-74.011087,40.738093],[-74.011139,40.73839],[-74.010454,40.738365],[-74.010393,40.739174],[-74.01158,40.739265],[-74.011527,40.739874],[-74.011613,40.739708],[-74.012369,40.739752],[-74.01231,40.740195],[-74.011577,40.74016],[-74.011515,40.739973],[-74.011461,40.740584],[-74.012157,40.740606],[-74.012659,40.740748],[-74.009497,40.740727],[-74.009411,40.741154],[-74.012162,40.741492],[-74.012117,40.741759],[-74.009519,40.74149],[-74.009166,40.742417]]]]}},{"type":"Feature","properties":{"id":161,"name":"Midtown Center"},"geometry":{"type":"MultiPolygon","coordinates":[[[[-73.971243,40.760936],[-73.975807,40.754677],[-73.976516,40.754974],[-73.97837,40.752416],[-73.984118,40.754842],[-73.977686,40.763644],[-73.971243,40.760936]]]]}},{"type":"Feature","properties":{"id":162,"name":"Midtown East"},"geometry":{"type":"MultiPolygon","coordinates":[[[[-73.966583,40.761551],[-73.974449,40.750766],[-73.97837,40.752416],[-73.976516,40.754974],[-73.975807,40.754677],[-73.9698,40.762914],[-73.966583,40.761551]]]]}},{"type":"Feature","properties":{"id":163,"name":"Midtown North"},"geometry":{"type":"MultiPolygon","coordinates":[[[[-73.981362,40.767837],[-73.973636,40.76457],[-73.9698,40.762914],[-73.971243,40.760936],[-73.977686,40.763644],[-73.978602,40.762396],[-73.984282,40.764792],[-73.982152,40.767682],[-73.981735,40.767619],[-73.981362,40.767837]]]]}},{"type":"Feature","properties":{"id":164,"name":"Midtown South"},"geometry":{"type":"MultiPolygon","coordinates":[[[[-73.980851,40.74775],[-73.984075,40.743325],[-73.990518,40.746039],[-73.984118,40.754842],[-73.980887,40.753481],[-73.984076,40.749102],[-73.980851,40.74775]]]]}},{"type":"Feature","properties":{"id":166,"name":"Morningside Heights"},"geometry":{"type":"MultiPolygon","coordinates":[[[[-73.959493,40.817007],[-73.95627,40.813375],[-73.955707,40.814144],[-73.954081,40.81228],[-73.952101,40.811443],[-73.953576,40.809477],[-73.954967,40.810065],[-73.958182,40.805597],[-73.958249,40.803106],[-73.959647,40.801156],[-73.966701,40.804168],[-73.971108,40.80579],[-73.968557,40.809073],[-73.967402,40.811022],[-73.964141,40.815772],[-73.962031,40.818086],[-73.959493,40.817007]]]]}},{"type":"Feature","properties":{"id":170,"name":"Murray Hill"},"geometry":{"type":"MultiPolygon","coordinates":[[[[-73.97122,40.746922],[-73.973508,40.743782],[-73.978124,40.745727],[-73.98086,40.74197],[-73.984075,40.743325],[-73.980851,40.74775],[-73.984076,40.749102],[-73.980887,40.753481],[-73.974449,40.750766],[-73.975835,40.748863],[-73.97122,40.746922]]]]}},{"type":"Feature","properties":{"id":186,"name":"Penn Station/Madison Sq West"},"geometry":{"type":"MultiPolygon","coordinates":[[[[-73.987769,40.749787],[-73.991419,40.744803],[-73.997099,40.747205],[-73.993464,40.75219],[-73.987769,40.749787]]]]}},{"type":"Feature","properties":{"id":194,"name":"Randalls Island"},"geometry":{"type":"MultiPolygon","coordinates":[[[[-73.916399,40.797685],[-73.915455,40.797063],[-73.914438,40.795666],[-73.913804,40.794512],[-73.913784,40.793836],[-73.915141,40.792012],[-73.916306,40.791117],[-73.91617,40.791015],[-73.916854,40.790358],[-73.917106,40.790469],[-73.918563,40.789695],[-73.918509,40.789425],[-73.922188,40.785509],[-73.922852,40.783556],[-73.924121,40.782523],[-73.924673,40.782245],[-73.925718,40.782177],[-73.927324,40.781091],[-73.928101,40.78092],[-73.931054,40.782397],[-73.935023,40.783006],[-73.935982,40.783942],[-73.936053,40.784512],[-73.935713,40.78568],[-73.932707,40.789167],[-73.932407,40.789719],[-73.932243,40.789693],[-73.930842,40.790991],[-73.929724,40.791366],[-73.928073,40.790823],[-73.926104,40.790732],[-73.92616,40.791716],[-73.926569,40.791859],[-73.925608,40.791897],[-73.926739,40.791929],[-73.926331,40.791504],[-73.926566,40.79098],[-73.927869,40.790955],[-73.927894,40.791091],[-73.927136,40.791929],[-73.927801,40.791997],[-73.928267,40.792329],[-73.928319,40.793091],[-73.927352,40.794461],[-73.926936,40.795497],[-73.926952,40.796708],[-73.927439,40.797711],[-73.927263,40.798919],[-73.926883,40.799941],[-73.926503,40.800375],[-73.926678,40.80045],[-73.925493,40.801956],[-73.922634,40.801869],[-73.921911,40.801503],[-73.920315,40.799375],[-73.916399,40.797685]]]]}},{"type":"Feature","properties":{"id":202,"name":"Roosevelt Island"},"geometry":{"type":"MultiPolygon","coordinates":[[[[-73.941118,40.769414],[-73.942855,40.768303],[-73.949432,40.760549],[-73.951778,40.758403],[-73.952541,40.757095],[-73.955195,40.754775],[-73.957915,40.75211],[-73.95904,40.751392],[-73.961174,40.749498],[-73.961583,40.749414],[-73.961551,40.749774],[-73.961111,40.7506],[-73.960011,40.751832],[-73.959494,40.752972],[-73.959016,40.753595],[-73.958458,40.753949],[-73.953391,40.759797],[-73.953125,40.760053],[-73.952978,40.759962],[-73.952086,40.760862],[-73.950937,40.76257],[-73.949972,40.763646],[-73.949086,40.764264],[-73.945845,40.768321],[-73.945704,40.768328],[-73.945481,40.768625],[-73.945627,40.768693],[-73.945563,40.768802],[-73.945245,40.768773],[-73.944725,40.769786],[-73.942127,40.772035],[-73.940887,40.772373],[-73.940275,40.772947],[-73.940077,40.772926],[-73.940282,40.772301],[-73.9402,40.771128],[-73.940355,40.770497],[-73.941118,40.769414]]]]}},{"type":"Feature","properties":{"id":209,"name":"Seaport"},"geometry":{"type":"MultiPolygon","coordinates":[[[[-74.004998,40.712012],[-74.003661,40.711487],[-73.999195,40.707947],[-74.001187,40.70686],[-74.000983,40.706417],[-74.001407,40.706179],[-74.000583,40.705434],[-74.001437,40.704872],[-74.002061,40.705417],[-74.00257,40.705524],[-74.005057,40.708789],[-74.009063,40.710887],[-74.008601,40.711392],[-74.005892,40.712007],[-74.004998,40.712012]]]]}},{"type":"Feature","properties":{"id":211,"name":"SoHo"},"geometry":{"type":"MultiPolygon","coordinates":[[[[-73.996772,40.725432],[-74.001884,40.719398],[-74.005227,40.721744],[-74.005392,40.722037],[-74.00373,40.72625],[-74.002149,40.728035],[-73.996772,40.725432]]]]}},{"type":"Feature","properties":{"id":224,"name":"Stuy Town/Peter Cooper Village"},"geometry":{"type":"MultiPolygon","coordinates":[[[[-73.975111,40.73539],[-73.974437,40.735316],[-73.973959,40.733421],[-73.973857,40.733216],[-73.973676,40.733206],[-73.973868,40.733066],[-73.973413,40.731282],[-73.971963,40.73],[-73.971519,40.729351],[-73.971406,40.728719],[-73.971685,40.727406],[-73.97149,40.72735],[-73.971627,40.726628],[-73.982556,40.73135],[-73.978498,40.736791],[-73.975111,40.73539]]]]}},{"type":"Feature","properties":{"id":229,"name":"Sutton Place/Turtle Bay North"},"geometry":{"type":"MultiPolygon","coordinates":[[[[-73.961629,40.755152],[-73.964822,40.751596],[-73.965215,40.751808],[-73.965185,40.751952],[-73.965471,40.75194],[-73.967067,40.752621],[-73.966616,40.753243],[-73.971217,40.755193],[-73.966583,40.761551],[-73.958778,40.758271],[-73.960656,40.755923],[-73.961629,40.755152]]]]}},{"type":"Feature","properties":{"id":230,"name":"Times Sq/Theatre District"},"geometry":{"type":"MultiPolygon","coordinates":[[[[-73.978602,40.762396],[-73.984118,40.754842],[-73.989791,40.757233],[-73.984282,40.764792],[-73.978602,40.762396]]]]}},{"type":"Feature","properties":{"id":231,"name":"TriBeCa/Civic Center"},"geometry":{"type":"MultiPolygon","coordinates":[[[[-74.010812,40.72579],[-73.999956,40.718017],[-74.002723,40.71439],[-74.004858,40.712453],[-74.005892,40.712007],[-74.008348,40.711359],[-74.013754,40.713691],[-74.012441,40.719058],[-74.013031,40.719131],[-74.012914,40.719708],[-74.013447,40.719782],[-74.013389,40.720043],[-74.014572,40.720274],[-74.014523,40.720532],[-74.012966,40.720329],[-74.012869,40.720834],[-74.013239,40.720888],[-74.01308,40.721546],[-74.012539,40.721503],[-74.011964,40.72433],[-74.011354,40.724277],[-74.011025,40.725794],[-74.010812,40.72579]]]]}},{"type":"Feature","properties":{"id":232,"name":"Two Bridges/Seward Park"},"geometry":{"type":"MultiPolygon","coordinates":[[[[-73.976355,40.719133],[-73.974742,40.718841],[-73.97348,40.718861],[-73.974497,40.716043],[-73.976124,40.71246],[-73.976819,40.71142],[-73.977821,40.710645],[-73.981277,40.710217],[-73.981237,40.709823],[-73.988391,40.709127],[-73.988737,40.709971],[-73.991943,40.709589],[-73.992047,40.709776],[-73.991777,40.709819],[-73.992562,40.714388],[-73.990755,40.714554],[-73.99022,40.714405],[-73.989155,40.716709],[-73.988366,40.716446],[-73.986751,40.719593],[-73.985073,40.719083],[-73.983824,40.721473],[-73.976355,40.719133]]]]}},{"type":"Feature","properties":{"id":233,"name":"UN/Turtle Bay South"},"geometry":{"type":"MultiPolygon","coordinates":[[[[-73.965471,40.75194],[-73.965185,40.751952],[-73.965215,40.751808],[-73.964822,40.751596],[-73.968365,40.747433],[-73.968232,40.747368],[-73.968692,40.746809],[-73.969876,40.745445],[-73.969974,40.745496],[-73.970788,40.744406],[-73.970941,40.744471],[-73.971125,40.74419],[-73.970703,40.74399],[-73.971182,40.744103],[-73.971358,40.743838],[-73.971205,40.743772],[-73.971281,40.743652],[-73.971085,40.743664],[-73.971233,40.743415],[-73.971356,40.74354],[-73.971679,40.743054],[-73.973508,40.743782],[-73.97122,40.746922],[-73.975835,40.748863],[-73.971217,40.755193],[-73.966616,40.753243],[-73.967067,40.752621],[-73.965471,40.75194]]],[[[-73.96416,40.746866],[-73.964445,40.74641],[-73.964583,40.746454],[-73.96416,40.746866]]]]}},{"type":"Feature","properties":{"id":234,"name":"Union Sq"},"geometry":{"type":"MultiPolygon","coordinates":[[[[-73.989917,40.735349],[-73.989903,40.734435],[-73.99684,40.737361],[-73.990518,40.746039],[-73.984075,40.743325],[-73.989917,40.735349]]]]}},{"type":"Feature","properties":{"id":236,"name":"Upper East Side North"},"geometry":{"type":"MultiPolygon","coordinates":[[[[-73.949332,40.785193],[-73.958255,40.772965],[-73.964687,40.775677],[-73.955777,40.787914],[-73.949332,40.785193]]]]}},{"type":"Feature","properties":{"id":237,"name":"Upper East Side South"},"geometry":{"type":"MultiPolygon","coordinates":[[[[-73.958255,40.772965],[-73.966583,40.761551],[-73.973015,40.764279],[-73.964687,40.775677],[-73.958255,40.772965]]]]}},{"type":"Feature","properties":{"id":238,"name":"Upper West Side North"},"geometry":{"type":"MultiPolygon","coordinates":[[[[-73.964176,40.792362],[-73.969336,40.785293],[-73.981886,40.790517],[-73.9764,40.798273],[-73.969415,40.795361],[-73.969871,40.794735],[-73.964176,40.792362]]]]}},{"type":"Feature","properties":{"id":239,"name":"Upper West Side South"},"geometry":{"type":"MultiPolygon","coordinates":[[[[-73.981886,40.790517],[-73.969336,40.785293],[-73.974997,40.777533],[-73.985072,40.78178],[-73.985679,40.780313],[-73.988127,40.781402],[-73.985466,40.785361],[-73.986173,40.786068],[-73.987119,40.78521],[-73.986128,40.786239],[-73.985429,40.785414],[-73.985081,40.785922],[-73.985766,40.786196],[-73.985683,40.78631],[-73.985017,40.786014],[-73.984655,40.786535],[-73.98595,40.786487],[-73.985812,40.786617],[-73.984619,40.786586],[-73.981886,40.790517]]]]}},{"type":"Feature","properties":{"id":243,"name":"Washington Heights North"},"geometry":{"type":"MultiPolygon","coordinates":[[[[-73.931565,40.869582],[-73.931414,40.868962],[-73.927269,40.865535],[-73.924742,40.861594],[-73.924998,40.861464],[-73.925022,40.860695],[-73.925287,40.860126],[-73.926766,40.858915],[-73.9271,40.858276],[-73.926911,40.857509],[-73.926636,40.857932],[-73.926175,40.858154],[-73.925189,40.858028],[-73.92479,40.857494],[-73.924671,40.856811],[-73.927696,40.852488],[-73.927033,40.852201],[-73.92708,40.851432],[-73.927477,40.850694],[-73.928867,40.849392],[-73.929707,40.848123],[-73.930621,40.848481],[-73.931394,40.847428],[-73.936397,40.849541],[-73.935754,40.850168],[-73.939571,40.851276],[-73.941262,40.851392],[-73.942039,40.851931],[-73.942903,40.850997],[-73.943178,40.8498],[-73.946926,40.850528],[-73.946516,40.850969],[-73.946275,40.850842],[-73.946201,40.851032],[-73.946081,40.850982],[-73.946117,40.851174],[-73.945653,40.851212],[-73.944667,40.851922],[-73.944325,40.851823],[-73.944197,40.852016],[-73.94348,40.852282],[-73.94187,40.853868],[-73.940293,40.856642],[-73.939111,40.858041],[-73.93831,40.859381],[-73.937529,40.860097],[-73.936476,40.861927],[-73.934017,40.865036],[-73.93395,40.865347],[-73.932663,40.867237],[-73.932902,40.867293],[-73.93284,40.867415],[-73.932598,40.867311],[-73.932519,40.867411],[-73.932268,40.868562],[-73.932492,40.868678],[-73.932651,40.868465],[-73.932524,40.868722],[-73.93225,40.86864],[-73.932314,40.868924],[-73.932569,40.868979],[-73.932189,40.869367],[-73.932469,40.869476],[-73.932354,40.869755],[-73.932359,40.869507],[-73.932133,40.869416],[-73.93205,40.869642],[-73.932199,40.869845],[-73.931565,40.869582]]]]}},{"type":"Feature","properties":{"id":244,"name":"Washington Heights South"},"geometry":{"type":"MultiPolygon","coordinates":[[[[-73.941262,40.851392],[-73.939571,40.851276],[-73.935754,40.850168],[-73.936397,40.849541],[-73.931394,40.847428],[-73.935567,40.841713],[-73.935628,40.841279],[-73.935006,40.839852],[-73.935055,40.839333],[-73.935331,40.838875],[-73.936383,40.83785],[-73.938042,40.834289],[-73.939478,40.833013],[-73.940246,40.831842],[-73.940346,40.830458],[-73.949416,40.834359],[-73.950155,40.834397],[-73.949546,40.836604],[-73.949283,40.836741],[-73.94954,40.83688],[-73.948561,40.839565],[-73.947383,40.841941],[-73.946124,40.843892],[-73.946172,40.845393],[-73.946517,40.845995],[-73.946351,40.84624],[-73.946824,40.847134],[-73.946636,40.848912],[-73.947028,40.850042],[-73.946964,40.850466],[-73.943178,40.8498],[-73.942903,40.850997],[-73.942039,40.851931],[-73.941262,40.851392]]]]}},{"type":"Feature","properties":{"id":246,"name":"West Chelsea/Hudson Yards"},"geometry":{"type":"MultiPolygon","coordinates":[[[[-74.0044,40.762671],[-74.002201,40.761728],[-74.001533,40.762645],[-74.001278,40.762076],[-73.995475,40.759627],[-74.008204,40.742148],[-74.009166,40.742417],[-74.009092,40.742886],[-74.00962,40.742951],[-74.009585,40.743264],[-74.012137,40.743532],[-74.012021,40.74394],[-74.009512,40.743676],[-74.009438,40.743971],[-74.0089,40.743918],[-74.008728,40.744858],[-74.009612,40.744998],[-74.009558,40.745289],[-74.009917,40.745327],[-74.009998,40.744955],[-74.009872,40.744917],[-74.010168,40.744942],[-74.010038,40.744963],[-74.009974,40.745323],[-74.010469,40.745387],[-74.01055,40.745013],[-74.010419,40.744977],[-74.010764,40.745005],[-74.010586,40.74502],[-74.010531,40.745382],[-74.011104,40.745448],[-74.011172,40.745078],[-74.011045,40.745046],[-74.011388,40.745073],[-74.01123,40.745076],[-74.011154,40.745446],[-74.01174,40.74552],[-74.011795,40.745155],[-74.011671,40.745114],[-74.011836,40.745126],[-74.011679,40.745979],[-74.009464,40.74575],[-74.009366,40.746337],[-74.011528,40.746575],[-74.011504,40.746991],[-74.009243,40.746763],[-74.009137,40.74736],[-74.011357,40.747592],[-74.011332,40.748001],[-74.009058,40.747786],[-74.008946,40.748412],[-74.011216,40.748697],[-74.011109,40.74905],[-74.009948,40.748932],[-74.00956,40.749935],[-74.010808,40.750319],[-74.010757,40.750411],[-74.009253,40.749985],[-74.008533,40.751884],[-74.009141,40.752098],[-74.008651,40.75194],[-74.009108,40.75214],[-74.009058,40.752214],[-74.008929,40.752144],[-74.008581,40.752044],[-74.009341,40.752356],[-74.008479,40.752019],[-74.008426,40.752158],[-74.009991,40.752816],[-74.009971,40.752934],[-74.008792,40.752352],[-74.008688,40.752494],[-74.008354,40.752351],[-74.00762,40.754281],[-74.007745,40.754337],[-74.007597,40.75453],[-74.007472,40.754477],[-74.007285,40.754736],[-74.007414,40.754789],[-74.007272,40.754986],[-74.007145,40.754932],[-74.005419,40.757323],[-74.005212,40.757232],[-74.004804,40.75781],[-74.005279,40.758029],[-74.005031,40.758357],[-74.007004,40.759232],[-74.006476,40.759894],[-74.004505,40.759085],[-74.004206,40.759502],[-74.003907,40.759376],[-74.003807,40.759511],[-74.004247,40.759699],[-74.004149,40.759836],[-74.004319,40.759911],[-74.003669,40.759706],[-74.003573,40.759847],[-74.003929,40.760003],[-74.003133,40.761078],[-74.002787,40.760929],[-74.002335,40.761544],[-74.004545,40.762493],[-74.0044,40.762671]]]]}},{"type":"Feature","properties":{"id":249,"name":"West Village"},"geometry":{"type":"MultiPolygon","coordinates":[[[[-74.001412,40.731065],[-74.002817,40.728363],[-74.00709,40.728772],[-74.005158,40.740858],[-73.99684,40.737361],[-74.001412,40.731065]]]]}},{"type":"Feature","properties":{"id":261,"name":"World Trade Center"},"geometry":{"type":"MultiPolygon","coordinates":[[[[-74.013254,40.705871],[-74.01327,40.704553],[-74.01437,40.704558],[-74.015656,40.704883],[-74.016686,40.704799],[-74.014269,40.711468],[-74.013754,40.713691],[-74.008601,40.711392],[-74.013254,40.705871]]]]}},{"type":"Feature","properties":{"id":262,"name":"Yorkville East"},"geometry":{"type":"MultiPolygon","coordinates":[[[[-73.943833,40.782859],[-73.943544,40.782881],[-73.943881,40.781532],[-73.9436,40.780159],[-73.943214,40.779318],[-73.943004,40.779639],[-73.942716,40.779544],[-73.942712,40.779215],[-73.942536,40.779091],[-73.942893,40.778614],[-73.942438,40.777315],[-73.942074,40.776918],[-73.942082,40.775957],[-73.942401,40.775727],[-73.94293,40.774676],[-73.944879,40.77257],[-73.94749,40.770115],[-73.952685,40.772339],[-73.944723,40.783248],[-73.943833,40.782859]]],[[[-73.938046,40.78083],[-73.937794,40.780781],[-73.937799,40.781031],[-73.937646,40.781001],[-73.937599,40.780468],[-73.938238,40.780259],[-73.938612,40.780339],[-73.939584,40.779576],[-73.939493,40.779874],[-73.938728,40.780511],[-73.93884,40.780599],[-73.938744,40.781044],[-73.938082,40.781418],[-73.937968,40.781289],[-73.938046,40.78083]]]]}},{"type":"Feature","properties":{"id":263,"name":"Yorkville West"},"geometry":{"type":"MultiPolygon","coordinates":[[[[-73.944723,40.783248],[-73.952685,40.772339],[-73.957294,40.774284],[-73.949332,40.785193],[-73.944723,40.783248]]]]}}]}